[{"OBJECT_NAME":"STARLINK-1457","OBJECT_ID":"2020-035T","EPOCH":"2026-03-10T00:00:02.999808","MEAN_MOTION":15.78669146,"ECCENTRICITY":0.00092447,"INCLINATION":53.048,"RA_OF_ASC_NODE":20.8784,"ARG_OF_PERICENTER":72.1438,"MEAN_ANOMALY":18.6861,"EPHEMERIS_TYPE":0,"CLASSIFICATION_TYPE":"U","NORAD_CAT_ID":45674,"ELEMENT_SET_NO":999,"REV_AT_EPOCH":598,"BSTAR":0.00068365189,"MEAN_MOTION_DOT":0.00123445,"MEAN_MOTION_DDOT":0},{"OBJECT_NAME":"STARLINK-36710","OBJECT_ID":"2026-038L","EPOCH":"2026-03-09T22:00:01.999584","MEAN_MOTION":15.88221795,"ECCENTRICITY":0.00012833,"INCLINATION":97.2714,"RA_OF_ASC_NODE":79.2229,"ARG_OF_PERICENTER":87.3138,"MEAN_ANOMALY":206.7416,"EPHEMERIS_TYPE":0,"CLASSIFICATION_TYPE":"U","NORAD_CAT_ID":67971,"ELEMENT_SET_NO":999,"REV_AT_EPOCH":323,"BSTAR":-0.0063331814,"MEAN_MOTION_DOT":-0.0149455,"MEAN_MOTION_DDOT":0}]
